NORAD_CAT_ID,OBJECT_NAME,OBJECT_TYPE,EPOCH,MEAN_MOTION,ECCENTRICITY,INCLINATION,RA_OF_ASC_NODE,ARG_OF_PERICENTER,MEAN_ANOMALY,BSTAR,MEAN_MOTION_DOT,MEAN_MOTION_DDOT,TLE_LINE0,TLE_LINE1,TLE_LINE2,SEMIMAJOR_AXIS,PERIOD,APOGEE,PERIGEE,DECAYED
52588.0,STARLINK-3917,PAYLOAD,2023-05-18 01:36:44,15.08838852,0.0001233,53.218,47.805,99.2455,260.8676,0.00011396,1.526e-05,0.0,0 STARLINK-3917,1 52588U 22051BE  23138.06717965  .00001526  00000-0  11396-3 0  9993,2 52588  53.2180  47.8050 0001233  99.2455 260.8676 15.08838852 56673,6917.884,95.438,540.602,538.896,0.0
52588.0,STARLINK-3917,PAYLOAD,2023-05-18 17:30:35,15.0884191,0.0001205,53.2178,44.8308,94.6468,265.4662,3.2669e-05,2.32e-06,0.0,0 STARLINK-3917,1 52588U 22051BE  23138.72958045  .00000232  00000-0  32669-4 0  9992,2 52588  53.2178  44.8308 0001205  94.6468 265.4662 15.08841910 56704,6917.875,95.437,540.573,538.906,0.0
52588.0,STARLINK-3917,PAYLOAD,2023-05-19 03:02:53,15.08849063,0.0001276,53.2177,43.0468,93.5501,266.5637,9.1089e-05,1.162e-05,0.0,0 STARLINK-3917,1 52588U 22051BE  23139.12701376  .00001162  00000-0  91089-4 0  9994,2 52588  53.2177  43.0468 0001276  93.5501 266.5637 15.08849063 56830,6917.853,95.437,540.6,538.835,0.0
52588.0,STARLINK-3917,PAYLOAD,2023-05-19 20:32:09,15.08837858,0.0001392,53.2171,39.7768,86.248,273.8672,5.7476e-05,6.27e-06,0.0,0 STARLINK-3917,1 52588U 22051BE  23139.85566167  .00000627  00000-0  57476-4 0  9998,2 52588  53.2171  39.7768 0001392  86.2480 273.8672 15.08837858 56876,6917.887,95.438,540.715,538.789,0.0
52588.0,STARLINK-3917,PAYLOAD,2023-05-19 23:42:55,15.08840097,9.99e-05,53.2184,39.1823,89.7386,270.372,5.6677e-05,6.14e-06,0.0,0 STARLINK-3917,1 52588U 22051BE  23139.98813907  .00000614  00000-0  56677-4 0  9997,2 52588  53.2184  39.1823 0000999  89.7386 270.3720 15.08840097 56966,6917.88,95.438,540.436,539.054,0.0
52588.0,STARLINK-3917,PAYLOAD,2023-05-20 20:22:55,15.08851404,0.0001189,53.2175,35.317,87.8414,272.2714,9.4499e-05,1.217e-05,0.0,0 STARLINK-3917,1 52588U 22051BE  23140.84924964  .00001217  00000-0  94499-4 0  9994,2 52588  53.2175  35.3170 0001189  87.8414 272.2714 15.08851404 57028,6917.846,95.437,540.533,538.888,0.0
52588.0,STARLINK-3917,PAYLOAD,2023-05-20 23:33:41,15.0885532,0.0001118,53.2176,34.723,75.7104,284.4012,0.00013146,1.806e-05,0.0,0 STARLINK-3917,1 52588U 22051BE  23140.98172604  .00001806  00000-0  13146-3 0  9998,2 52588  53.2176  34.7230 0001118  75.7104 284.4012 15.08855320 57110,6917.834,95.437,540.472,538.925,0.0
52588.0,STARLINK-3917,PAYLOAD,2023-05-21 20:13:43,15.08834786,0.0001182,53.2175,30.8564,76.144,283.9684,-5.1041e-05,-1.1e-05,0.0,0 STARLINK-3917,1 52588U 22051BE  23141.84286149 -.00001100  00000-0 -51041-4 0  9990,2 52588  53.2175  30.8564 0001182  76.1440 283.9684 15.08834786 57173,6917.896,95.438,540.579,538.944,0.0
52588.0,STARLINK-3917,PAYLOAD,2023-05-21 23:24:29,15.08832504,0.0001025,53.2169,30.2629,91.7961,268.3149,-7.529e-05,-1.486e-05,0.0,0 STARLINK-3917,1 52588U 22051BE  23141.97534208 -.00001486  00000-0 -75290-4 0  9995,2 52588  53.2169  30.2629 0001025  91.7961 268.3149 15.08832504 57268,6917.903,95.438,540.477,539.059,0.0
52588.0,STARLINK-3917,PAYLOAD,2023-05-22 08:56:48,15.08836746,9.97e-05,53.2169,28.4789,92.4796,267.631,1.4839e-05,-5.2e-07,0.0,0 STARLINK-3917,1 52588U 22051BE  23142.37278187 -.00000052  00000-0  14839-4 0  9990,2 52588  53.2169  28.4789 0000997  92.4796 267.6310 15.08836746 57258,6917.89,95.438,540.445,539.066,0.0
52588.0,STARLINK-3917,PAYLOAD,2023-05-23 02:26:02,15.08849858,9.76e-05,53.2182,25.2052,87.7133,272.3971,0.0001367,1.889e-05,0.0,0 STARLINK-3917,1 52588U 22051BE  23143.10141469  .00001889  00000-0  13670-3 0  9993,2 52588  53.2182  25.2052 0000976  87.7133 272.3971 15.08849858 57434,6917.85,95.437,540.39,539.04,0.0
52588.0,STARLINK-3917,PAYLOAD,2023-05-23 23:06:03,15.0883247,0.0001006,53.2174,21.3419,93.8334,266.2773,7.6218e-05,9.25e-06,0.0,0 STARLINK-3917,1 52588U 22051BE  23143.96254581  .00000925  00000-0  76218-4 0  9995,2 52588  53.2174  21.3419 0001006  93.8334 266.2773 15.08832470 57495,6917.903,95.438,540.464,539.072,0.0
52588.0,STARLINK-3917,PAYLOAD,2023-05-24 02:16:50,15.08833169,9.91e-05,53.2177,20.7458,81.8044,278.3061,8.1048e-05,1.002e-05,0.0,0 STARLINK-3917,1 52588U 22051BE  23144.09502674  .00001002  00000-0  81048-4 0  9993,2 52588  53.2177  20.7458 0000991  81.8044 278.3061 15.08833169 57581,6917.901,95.438,540.452,539.081,0.0
52588.0,STARLINK-3917,PAYLOAD,2023-05-25 21:12:14,15.08840475,0.0001173,53.2181,12.7189,99.7841,260.3283,0.00011324,1.515e-05,0.0,0 STARLINK-3917,1 52588U 22051BE  23145.88350667  .00001515  00000-0  11324-3 0  9992,2 52588  53.2181  12.7189 0001173  99.7841 260.3283 15.08840475 57781,6917.879,95.438,540.555,538.932,0.0
52588.0,STARLINK-3917,PAYLOAD,2023-05-25 22:47:38,15.08843516,0.0001159,53.2192,12.421,94.6541,265.4584,0.00013063,1.792e-05,0.0,0 STARLINK-3917,1 52588U 22051BE  23145.94974591  .00001792  00000-0  13063-3 0  9996,2 52588  53.2192  12.4210 0001159  94.6541 265.4584 15.08843516 57868,6917.87,95.437,540.536,538.933,0.0
52588.0,STARLINK-3917,PAYLOAD,2023-05-26 21:03:02,15.08841715,0.0001396,53.2199,8.2525,72.9271,287.1874,5.8457e-05,6.43e-06,0.0,0 STARLINK-3917,1 52588U 22051BE  23146.87710958  .00000643  00000-0  58457-4 0  9995,2 52588  53.2199   8.2525 0001396  72.9271 287.1874 15.08841715 57939,6917.875,95.437,540.706,538.774,0.0
52588.0,STARLINK-3917,PAYLOAD,2023-05-27 20:53:49,15.08840568,0.0001134,53.2185,3.7959,95.9036,264.2086,3.573e-05,2.81e-06,0.0,0 STARLINK-3917,1 52588U 22051BE  23147.87070949  .00000281  00000-0  35730-4 0  9992,2 52588  53.2185   3.7959 0001134  95.9036 264.2086 15.08840568 58082,6917.879,95.438,540.528,538.959,0.0
52588.0,STARLINK-3917,PAYLOAD,2023-05-28 20:44:35,15.08845704,0.0001078,53.2179,359.3363,91.8506,268.261,0.00013169,1.809e-05,0.0,0 STARLINK-3917,1 52588U 22051BE  23148.86430458  .00001809  00000-0  13169-3 0  9995,2 52588  53.2179 359.3363 0001078  91.8506 268.2610 15.08845704 58307,6917.863,95.437,540.474,538.982,0.0
52588.0,STARLINK-3917,PAYLOAD,2023-05-29 14:13:51,15.08834846,0.0001089,53.2178,356.0652,91.9525,268.1591,4.3462e-05,4.04e-06,0.0,0 STARLINK-3917,1 52588U 22051BE  23149.59295425  .00000404  00000-0  43462-4 0  9999,2 52588  53.2178 356.0652 0001089  91.9525 268.1591 15.08834846 58341,6917.896,95.438,540.515,539.008,0.0
52588.0,STARLINK-3917,PAYLOAD,2023-05-29 17:24:37,15.08834751,0.0001091,53.2178,355.4704,91.8386,268.2731,3.7942e-05,3.16e-06,0.0,0 STARLINK-3917,1 52588U 22051BE  23149.72543463  .00000316  00000-0  37942-4 0  9990,2 52588  53.2178 355.4704 0001091  91.8386 268.2731 15.08834751 58431,6917.896,95.438,540.516,539.007,0.0
52588.0,STARLINK-3917,PAYLOAD,2023-05-29 20:35:23,15.08836082,0.0001006,53.2178,354.8761,80.8349,279.2757,5.5115e-05,5.89e-06,0.0,0 STARLINK-3917,1 52588U 22051BE  23149.85791413  .00000589  00000-0  55115-4 0  9998,2 52588  53.2178 354.8761 0001006  80.8349 279.2757 15.08836082 58383,6917.892,95.438,540.453,539.061,0.0
52588.0,STARLINK-3917,PAYLOAD,2023-05-30 06:07:42,15.08837345,0.0001022,53.2177,353.0922,80.0188,280.092,4.5162e-05,4.31e-06,0.0,0 STARLINK-3917,1 52588U 22051BE  23150.25535447  .00000431  00000-0  45162-4 0  9994,2 52588  53.2177 353.0922 0001022  80.0188 280.0920 15.08837345 58445,6917.889,95.438,540.461,539.046,0.0
52588.0,STARLINK-3917,PAYLOAD,2023-05-30 20:26:10,15.08845732,9.81e-05,53.2177,350.4151,76.8788,283.2314,7.0983e-05,8.42e-06,0.0,0 STARLINK-3917,1 52588U 22051BE  23150.85150834  .00000842  00000-0  70983-4 0  9998,2 52588  53.2177 350.4151 0000981  76.8788 283.2314 15.08845732 58533,6917.863,95.437,540.407,539.049,0.0
52588.0,STARLINK-3917,PAYLOAD,2023-05-31 12:20:02,15.08834344,9.97e-05,53.2174,347.4432,80.2685,279.842,9.5437e-05,1.231e-05,0.0,0 STARLINK-3917,1 52588U 22051BE  23151.51391592  .00001231  00000-0  95437-4 0  9994,2 52588  53.2174 347.4432 0000997  80.2685 279.8420 15.08834344 58637,6917.898,95.438,540.452,539.073,0.0
52588.0,STARLINK-3917,PAYLOAD,2023-05-31 18:41:34,15.08835949,0.0001007,53.2172,346.2546,77.8326,282.2779,9.5968e-05,1.24e-05,0.0,0 STARLINK-3917,1 52588U 22051BE  23151.77887534  .00001240  00000-0  95968-4 0  9997,2 52588  53.2172 346.2546 0001007  77.8326 282.2779 15.08835949 58744,6917.893,95.438,540.454,539.061,0.0
52588.0,STARLINK-3917,PAYLOAD,2023-05-31 20:16:56,15.08871238,8.4e-05,53.2175,345.9569,77.5706,282.538,-0.00038535,-6.42e-05,0.0,0 STARLINK-3917,1 52588U 22051BE  23151.84510368 -.00006420  00000-0 -38535-3 0  9996,2 52588  53.2175 345.9569 0000840  77.5706 282.5380 15.08871238 58686,6917.785,95.436,540.231,539.069,0.0
52588.0,STARLINK-3917,PAYLOAD,2023-06-01 05:49:16,15.08839241,9.61e-05,53.2171,344.1724,82.8933,277.2169,0.00010588,1.398e-05,0.0,0 STARLINK-3917,1 52588U 22051BE  23152.24255352  .00001398  00000-0  10588-3 0  9995,2 52588  53.2171 344.1724 0000961  82.8933 277.2169 15.08839241 58742,6917.883,95.438,540.413,539.083,0.0
52588.0,STARLINK-3917,PAYLOAD,2023-06-01 15:21:35,15.08839014,0.0001023,53.2174,342.3885,90.1633,269.9477,1.8981e-05,1.4e-07,0.0,0 STARLINK-3917,1 52588U 22051BE  23152.63999608  .00000014  00000-0  18981-4 0  9997,2 52588  53.2174 342.3885 0001023  90.1633 269.9477 15.08839014 58874,6917.883,95.438,540.456,539.041,0.0
52588.0,STARLINK-3917,PAYLOAD,2023-06-02 12:01:36,15.08835235,0.0001082,53.2176,338.5225,80.5483,279.5632,6.1009e-05,6.83e-06,0.0,0 STARLINK-3917,1 52588U 22051BE  23153.50111867  .00000683  00000-0  61009-4 0  9998,2 52588  53.2176 338.5225 0001082  80.5483 279.5632 15.08835235 58930,6917.895,95.438,540.508,539.011,0.0
52588.0,STARLINK-3917,PAYLOAD,2023-06-02 18:23:08,15.08864478,0.0001002,53.2175,337.3329,70.2665,289.8435,-0.00038807,-6.463e-05,0.0,0 STARLINK-3917,1 52588U 22051BE  23153.76607256 -.00006463  00000-0 -38807-3 0  9991,2 52588  53.2175 337.3329 0001002  70.2665 289.8435 15.08864478 59040,6917.806,95.436,540.364,538.977,0.0
